ANDESITE                
1 45726U 20037D   26068.46720933  .00004478  00000+0  31876-3 0  9992
2 45726  97.7890 260.5174 0009953 141.6473 218.5462 15.05115692310662
STARLINK-34929          
1 65178U 25175E   26068.53317128  .00008162  00000+0  56910-3 0  9999
2 65178  97.6032 302.4513 0002332  89.1334 271.0160 15.05658367 32617
